
    {
        "ARG_OF_PERICENTER": 145.4441,
        "BSTAR": 0.00040422,
        "CLASSIFICATION_TYPE": "U",
        "ECCENTRICITY": 0.0006117,
        "ELEMENT_SET_NO": 999,
        "EPHEMERIS_TYPE": 0,
        "EPOCH": "2026-05-03T21:52:08.476608",
        "INCLINATION": 97.8753,
        "MEAN_ANOMALY": 214.7198,
        "MEAN_MOTION": 15.33572553,
        "MEAN_MOTION_DDOT": 0,
        "MEAN_MOTION_DOT": 0.00013047,
        "NORAD_CAT_ID": 46506,
        "OBJECT_ID": "2020-068W",
        "OBJECT_NAME": "NETSAT-1",
        "RA_OF_ASC_NODE": 121.7609,
        "REV_AT_EPOCH": 30851
    },
    {
        "ARG_OF_PERICENTER": 132.0888,
        "BSTAR": 0.00050381,
        "CLASSIFICATION_TYPE": "U",
        "ECCENTRICITY": 0.0005706,
        "ELEMENT_SET_NO": 999,
        "EPHEMERIS_TYPE": 0,
        "EPOCH": "2026-05-03T22:18:42.668064",
        "INCLINATION": 97.8635,
        "MEAN_ANOMALY": 228.0844,
        "MEAN_MOTION": 15.44143561,
        "MEAN_MOTION_DDOT": 0,
        "MEAN_MOTION_DOT": 0.00023029,
        "NORAD_CAT_ID": 46507,
        "OBJECT_ID": "2020-068X",
        "OBJECT_NAME": "NETSAT-2",
        "RA_OF_ASC_NODE": 128.415,
        "REV_AT_EPOCH": 30890
    },
    {
        "ARG_OF_PERICENTER": 300.3299,
        "BSTAR": 0,
        "CLASSIFICATION_TYPE": "U",
        "ECCENTRICITY": 0.000885,
        "ELEMENT_SET_NO": 999,
        "EPHEMERIS_TYPE": 0,
        "EPOCH": "2026-05-02T21:27:30.712608",
        "INCLINATION": 70.1448,
        "MEAN_ANOMALY": 59.6485,
        "MEAN_MOTION": 6.42583286,
        "MEAN_MOTION_DDOT": 0,
        "MEAN_MOTION_DOT": -3e-08,
        "NORAD_CAT_ID": 53109,
        "OBJECT_ID": "2022-080E",
        "OBJECT_NAME": "GREENCUBE (IO-117)",
        "RA_OF_ASC_NODE": 314.0048,
        "REV_AT_EPOCH": 8915
    },
    {
        "ARG_OF_PERICENTER": 254.1268,
        "BSTAR": 0.00038942,
        "CLASSIFICATION_TYPE": "U",
        "ECCENTRICITY": 0.0010086,
        "ELEMENT_SET_NO": 999,
        "EPHEMERIS_TYPE": 0,
        "EPOCH": "2026-05-04T03:42:33.291072",
        "INCLINATION": 97.5084,
        "MEAN_ANOMALY": 105.8859,
        "MEAN_MOTION": 15.28462772,
        "MEAN_MOTION_DDOT": 0,
        "MEAN_MOTION_DOT": 0.00010732,
        "NORAD_CAT_ID": 57176,
        "OBJECT_ID": "2023-091L",
        "OBJECT_NAME": "SITRO-AIS 5 (KATYS)",
        "RA_OF_ASC_NODE": 187.6644,
        "REV_AT_EPOCH": 15761
    },
    {
        "ARG_OF_PERICENTER": 258.7044,
        "BSTAR": 0.00023489,
        "CLASSIFICATION_TYPE": "U",
        "ECCENTRICITY": 0.0010356,
        "ELEMENT_SET_NO": 999,
        "EPHEMERIS_TYPE": 0,
        "EPOCH": "2026-05-04T03:58:56.658720",
        "INCLINATION": 97.5091,
        "MEAN_ANOMALY": 101.303,
        "MEAN_MOTION": 15.25166931,
        "MEAN_MOTION_DDOT": 0,
        "MEAN_MOTION_DOT": 5.825e-05,
        "NORAD_CAT_ID": 57192,
        "OBJECT_ID": "2023-091AC",
        "OBJECT_NAME": "SITRO-AIS 6 (CHIRKIN)",
        "RA_OF_ASC_NODE": 187.0214,
        "REV_AT_EPOCH": 15757
    },
    {
        "ARG_OF_PERICENTER": 249.191,
        "BSTAR": 0.00045226,
        "CLASSIFICATION_TYPE": "U",
        "ECCENTRICITY": 0.0009362,
        "ELEMENT_SET_NO": 999,
        "EPHEMERIS_TYPE": 0,
        "EPOCH": "2026-05-04T04:19:59.321280",
        "INCLINATION": 97.5079,
        "MEAN_ANOMALY": 110.8328,
        "MEAN_MOTION": 15.30978501,
        "MEAN_MOTION_DDOT": 0,
        "MEAN_MOTION_DOT": 0.00013484,
        "NORAD_CAT_ID": 57193,
        "OBJECT_ID": "2023-091AD",
        "OBJECT_NAME": "SITRO-AIS 8 (ANOKHIN)",
        "RA_OF_ASC_NODE": 189.1069,
        "REV_AT_EPOCH": 15771
    },
    {
        "ARG_OF_PERICENTER": 259.9774,
        "BSTAR": 0.00021184,
        "CLASSIFICATION_TYPE": "U",
        "ECCENTRICITY": 0.0010188,
        "ELEMENT_SET_NO": 999,
        "EPHEMERIS_TYPE": 0,
        "EPOCH": "2026-05-04T03:50:57.435072",
        "INCLINATION": 97.509,
        "MEAN_ANOMALY": 100.0314,
        "MEAN_MOTION": 15.24875777,
        "MEAN_MOTION_DDOT": 0,
        "MEAN_MOTION_DOT": 5.199e-05,
        "NORAD_CAT_ID": 57194,
        "OBJECT_ID": "2023-091AE",
        "OBJECT_NAME": "SITRO-AIS 7 (FARTUSHNIY)",
        "RA_OF_ASC_NODE": 186.8628,
        "REV_AT_EPOCH": 15756
    },
    {
        "ARG_OF_PERICENTER": 217.6595,
        "BSTAR": 0.00050603,
        "CLASSIFICATION_TYPE": "U",
        "ECCENTRICITY": 0.0006213,
        "ELEMENT_SET_NO": 999,
        "EPHEMERIS_TYPE": 0,
        "EPOCH": "2026-05-04T04:40:53.044032",
        "INCLINATION": 97.5099,
        "MEAN_ANOMALY": 142.4214,
        "MEAN_MOTION": 15.36983142,
        "MEAN_MOTION_DDOT": 0,
        "MEAN_MOTION_DOT": 0.00018254,
        "NORAD_CAT_ID": 57199,
        "OBJECT_ID": "2023-091AK",
        "OBJECT_NAME": "SITRO-AIS 10 (BURDAEV)",
        "RA_OF_ASC_NODE": 193.74,
        "REV_AT_EPOCH": 15800
    },
    {
        "ARG_OF_PERICENTER": 218.5838,
        "BSTAR": 0.00056563,
        "CLASSIFICATION_TYPE": "U",
        "ECCENTRICITY": 0.0006429,
        "ELEMENT_SET_NO": 999,
        "EPHEMERIS_TYPE": 0,
        "EPOCH": "2026-05-04T03:26:00.477312",
        "INCLINATION": 97.5099,
        "MEAN_ANOMALY": 141.4947,
        "MEAN_MOTION": 15.36533473,
        "MEAN_MOTION_DDOT": 0,
        "MEAN_MOTION_DOT": 0.00020126,
        "NORAD_CAT_ID": 57201,
        "OBJECT_ID": "2023-091AM",
        "OBJECT_NAME": "SITRO-AIS 9 (SHCHUKIN)",
        "RA_OF_ASC_NODE": 193.4495,
        "REV_AT_EPOCH": 15798
    },
    {
        "ARG_OF_PERICENTER": 211.5649,
        "BSTAR": 0.00056559,
        "CLASSIFICATION_TYPE": "U",
        "ECCENTRICITY": 0.0006228,
        "ELEMENT_SET_NO": 999,
        "EPHEMERIS_TYPE": 0,
        "EPOCH": "2026-05-04T03:24:18.396576",
        "INCLINATION": 97.5111,
        "MEAN_ANOMALY": 148.5222,
        "MEAN_MOTION": 15.36813528,
        "MEAN_MOTION_DDOT": 0,
        "MEAN_MOTION_DOT": 0.00020307,
        "NORAD_CAT_ID": 57204,
        "OBJECT_ID": "2023-091AQ",
        "OBJECT_NAME": "SITRO-AIS 12 (SMIRENNIY)",
        "RA_OF_ASC_NODE": 193.8883,
        "REV_AT_EPOCH": 15800
    },
    {
        "ARG_OF_PERICENTER": 211.2878,
        "BSTAR": 0.00051738,
        "CLASSIFICATION_TYPE": "U",
        "ECCENTRICITY": 0.0006159,
        "ELEMENT_SET_NO": 999,
        "EPHEMERIS_TYPE": 0,
        "EPOCH": "2026-05-04T04:00:18.588384",
        "INCLINATION": 97.5109,
        "MEAN_ANOMALY": 148.8001,
        "MEAN_MOTION": 15.37201094,
        "MEAN_MOTION_DDOT": 0,
        "MEAN_MOTION_DOT": 0.00018798,
        "NORAD_CAT_ID": 57208,
        "OBJECT_ID": "2023-091AU",
        "OBJECT_NAME": "SITRO-AIS 11 (SHEFFER)",
        "RA_OF_ASC_NODE": 194.134,
        "REV_AT_EPOCH": 15802
    },
    {
        "ARG_OF_PERICENTER": 121.4818,
        "BSTAR": 0.00043596,
        "CLASSIFICATION_TYPE": "U",
        "ECCENTRICITY": 0.0147421,
        "ELEMENT_SET_NO": 999,
        "EPHEMERIS_TYPE": 0,
        "EPOCH": "2026-05-04T05:15:37.490688",
        "INCLINATION": 95.3918,
        "MEAN_ANOMALY": 240.0911,
        "MEAN_MOTION": 14.93184678,
        "MEAN_MOTION_DDOT": 0,
        "MEAN_MOTION_DOT": 5.605e-05,
        "NORAD_CAT_ID": 59066,
        "OBJECT_ID": "2024-039R",
        "OBJECT_NAME": "SITRO-AIS 25",
        "RA_OF_ASC_NODE": 204.8848,
        "REV_AT_EPOCH": 11816
    }