NETSAT-1                
1 46506U 20068W   26123.91120922  .00013047  00000+0  40422-3 0  9996
2 46506  97.8753 121.7609 0006117 145.4441 214.7198 15.33572553308514
NETSAT-2                
1 46507U 20068X   26123.92966051  .00023029  00000+0  50381-3 0  9995
2 46507  97.8635 128.4150 0005706 132.0888 228.0844 15.44143561308903
GREENCUBE (IO-117)      
1 53109U 22080E   26122.89410547 -.00000003  00000+0  00000+0 0  9993
2 53109  70.1448 314.0048 0008850 300.3299  59.6485  6.42583286 89155
SITRO-AIS 5 (KATYS)     
1 57176U 23091L   26124.15455198  .00010732  00000+0  38942-3 0  9995
2 57176  97.5084 187.6644 0010086 254.1268 105.8859 15.28462772157610
SITRO-AIS 6 (CHIRKIN)   
1 57192U 23091AC  26124.16593355  .00005825  00000+0  23489-3 0  9999
2 57192  97.5091 187.0214 0010356 258.7044 101.3030 15.25166931157577
SITRO-AIS 8 (ANOKHIN)   
1 57193U 23091AD  26124.18054770  .00013484  00000+0  45226-3 0  9998
2 57193  97.5079 189.1069 0009362 249.1910 110.8328 15.30978501157717
SITRO-AIS 7 (FARTUSHNIY)
1 57194U 23091AE  26124.16038698  .00005199  00000+0  21184-3 0  9999
2 57194  97.5090 186.8628 0010188 259.9774 100.0314 15.24875777157564
SITRO-AIS 10 (BURDAEV)  
1 57199U 23091AK  26124.19505838  .00018254  00000+0  50603-3 0  9996
2 57199  97.5099 193.7400 0006213 217.6595 142.4214 15.36983142158007
SITRO-AIS 9 (SHCHUKIN)  
1 57201U 23091AM  26124.14306108  .00020126  00000+0  56563-3 0  9996
2 57201  97.5099 193.4495 0006429 218.5838 141.4947 15.36533473157987
SITRO-AIS 12 (SMIRENNIY)
1 57204U 23091AQ  26124.14187959  .00020307  00000+0  56559-3 0  9996
2 57204  97.5111 193.8883 0006228 211.5649 148.5222 15.36813528158000
SITRO-AIS 11 (SHEFFER)  
1 57208U 23091AU  26124.16688181  .00018798  00000+0  51738-3 0  9990
2 57208  97.5109 194.1340 0006159 211.2878 148.8001 15.37201094158027
SITRO-AIS 25            
1 59066U 24039R   26124.21918392  .00005605  00000+0  43596-3 0  9999
2 59066  95.3918 204.8848 0147421 121.4818 240.0911 14.93184678118166
